IRIDIUM 112             
1 41925U 17003J   23254.44353917  .00000359  00000+0  12120-3 0  9999
2 41925  86.4020 150.3306 0002087  89.7241 270.4193 14.34213545348541
IRIDIUM 111             
1 41926U 17003K   23254.43086203  .00000330  00000+0  11071-3 0  9993
2 41926  86.4018 150.3843 0002417  82.0661 278.0809 14.34218805348524
IRIDIUM 113             
1 42803U 17039A   23254.62012984  .00000487  00000+0  16698-3 0  9996
2 42803  86.4011  24.0294 0002318  94.5117 265.6344 14.34219976326480
IRIDIUM 123             
1 42804U 17039B   23254.52206974  .00000122  00000+0  36479-4 0  9996
2 42804  86.3942  55.5778 0002326  98.4640 261.6820 14.34219036325236
IRIDIUM 120             
1 42805U 17039C   23254.61379272  .00000472  00000+0  16142-3 0  9991
2 42805  86.4000  23.9455 0002193  91.5721 268.5726 14.34216343326476
IRIDIUM 115             
1 42806U 17039D   23254.45661723  .00002105  00000+0  61928-3 0  9996
2 42806  86.4537  23.9966 0002488  91.7433 268.4053 14.43311456328620
IRIDIUM 118             
1 42807U 17039E   23254.55379572  .00000117  00000+0  34737-4 0  9996
2 42807  86.3942  55.5671 0002080  93.2062 266.9371 14.34218346325231
